[{"OBJECT_NAME":"SOCRATES","OBJECT_ID":"2014-029C","EPOCH":"2026-03-09T21:12:44.374752","MEAN_MOTION":14.94368282,"ECCENTRICITY":0.00051873,"INCLINATION":97.8954,"RA_OF_ASC_NODE":181.6721,"ARG_OF_PERICENTER":318.1909,"MEAN_ANOMALY":41.8914,"EPHEMERIS_TYPE":0,"CLASSIFICATION_TYPE":"U","NORAD_CAT_ID":39768,"ELEMENT_SET_NO":999,"REV_AT_EPOCH":63957,"BSTAR":0.00024118992,"MEAN_MOTION_DOT":2.537e-5,"MEAN_MOTION_DDOT":0},{"OBJECT_NAME":"COSMOS 2535","OBJECT_ID":"2019-039A","EPOCH":"2026-03-10T00:12:21.928896","MEAN_MOTION":14.91716914,"ECCENTRICITY":0.00085444,"INCLINATION":97.5892,"RA_OF_ASC_NODE":100.9236,"ARG_OF_PERICENTER":173.2991,"MEAN_ANOMALY":186.8344,"EPHEMERIS_TYPE":0,"CLASSIFICATION_TYPE":"U","NORAD_CAT_ID":44421,"ELEMENT_SET_NO":999,"REV_AT_EPOCH":36185,"BSTAR":0.00020436382,"MEAN_MOTION_DOT":2.004e-5,"MEAN_MOTION_DDOT":0}]
